CCSDS_OMM_VERS = 2.0
CREATION_DATE  = 
ORIGINATOR     = 

OBJECT_NAME    = SEASAT 1
OBJECT_ID      = 1978-064A
CENTER_NAME    = EARTH
REF_FRAME      = TEME
TIME_SYSTEM    = UTC
MEAN_ELEMENT_THEORY = SGP/SGP4

EPOCH          = 2025-12-30T21:01:00.105024
MEAN_MOTION    = 14.46084347
ECCENTRICITY   = .0001258
INCLINATION    = 108.0141
RA_OF_ASC_NODE = 341.0855
ARG_OF_PERICENTER = 259.3938
MEAN_ANOMALY   = 100.7066

EPHEMERIS_TYPE = 0
CLASSIFICATION_TYPE = U
NORAD_CAT_ID   = 10967
ELEMENT_SET_NO = 999
REV_AT_EPOCH   = 49656
BSTAR          = .26471E-3
MEAN_MOTION_DOT = .809E-5
MEAN_MOTION_DDOT = 0

CCSDS_OMM_VERS = 2.0
CREATION_DATE  = 
ORIGINATOR     = 

OBJECT_NAME    = SL-14 R/B
OBJECT_ID      = 1979-011B
CENTER_NAME    = EARTH
REF_FRAME      = TEME
TIME_SYSTEM    = UTC
MEAN_ELEMENT_THEORY = SGP/SGP4

EPOCH          = 2025-12-30T23:10:21.170784
MEAN_MOTION    = 14.91797218
ECCENTRICITY   = .0014699
INCLINATION    = 82.5242
RA_OF_ASC_NODE = 161.7583
ARG_OF_PERICENTER = 289.0799
MEAN_ANOMALY   = 70.8829

EPHEMERIS_TYPE = 0
CLASSIFICATION_TYPE = U
NORAD_CAT_ID   = 11267
ELEMENT_SET_NO = 999
REV_AT_EPOCH   = 51853
BSTAR          = .12018E-3
MEAN_MOTION_DOT = .1238E-4
MEAN_MOTION_DDOT = 0

CCSDS_OMM_VERS = 2.0
CREATION_DATE  = 
ORIGINATOR     = 

OBJECT_NAME    = SL-8 R/B
OBJECT_ID      = 1979-089B
CENTER_NAME    = EARTH
REF_FRAME      = TEME
TIME_SYSTEM    = UTC
MEAN_ELEMENT_THEORY = SGP/SGP4

EPOCH          = 2025-12-30T22:33:22.543200
MEAN_MOTION    = 14.42295747
ECCENTRICITY   = .00148855
INCLINATION    = 74.0671
RA_OF_ASC_NODE = 218.2945
ARG_OF_PERICENTER = 45.3080
MEAN_ANOMALY   = 314.9286

EPHEMERIS_TYPE = 0
CLASSIFICATION_TYPE = U
NORAD_CAT_ID   = 11574
ELEMENT_SET_NO = 999
REV_AT_EPOCH   = 42619
BSTAR          = .12940818E-3
MEAN_MOTION_DOT = .401E-5
MEAN_MOTION_DDOT = 0

CCSDS_OMM_VERS = 2.0
CREATION_DATE  = 
ORIGINATOR     = 

OBJECT_NAME    = SL-14 R/B
OBJECT_ID      = 1980-005B
CENTER_NAME    = EARTH
REF_FRAME      = TEME
TIME_SYSTEM    = UTC
MEAN_ELEMENT_THEORY = SGP/SGP4

EPOCH          = 2025-12-31T01:37:29.710272
MEAN_MOTION    = 14.90817225
ECCENTRICITY   = .0016726
INCLINATION    = 82.5139
RA_OF_ASC_NODE = 12.3149
ARG_OF_PERICENTER = 37.1168
MEAN_ANOMALY   = 323.1204

EPHEMERIS_TYPE = 0
CLASSIFICATION_TYPE = U
NORAD_CAT_ID   = 11672
ELEMENT_SET_NO = 999
REV_AT_EPOCH   = 46626
BSTAR          = .11211E-3
MEAN_MOTION_DOT = .1131E-4
MEAN_MOTION_DDOT = 0

CCSDS_OMM_VERS = 2.0
CREATION_DATE  = 
ORIGINATOR     = 

OBJECT_NAME    = SL-8 R/B
OBJECT_ID      = 1981-003B
CENTER_NAME    = EARTH
REF_FRAME      = TEME
TIME_SYSTEM    = UTC
MEAN_ELEMENT_THEORY = SGP/SGP4

EPOCH          = 2025-12-30T23:50:49.451424
MEAN_MOTION    = 15.07685785
ECCENTRICITY   = .0276375
INCLINATION    = 82.9358
RA_OF_ASC_NODE = 353.4071
ARG_OF_PERICENTER = 57.6413
MEAN_ANOMALY   = 305.1244

EPHEMERIS_TYPE = 0
CLASSIFICATION_TYPE = U
NORAD_CAT_ID   = 12139
ELEMENT_SET_NO = 999
REV_AT_EPOCH   = 30431
BSTAR          = .78277E-3
MEAN_MOTION_DOT = .29616E-3
MEAN_MOTION_DDOT = 0

CCSDS_OMM_VERS = 2.0
CREATION_DATE  = 
ORIGINATOR     = 

OBJECT_NAME    = SL-3 R/B
OBJECT_ID      = 1981-046B
CENTER_NAME    = EARTH
REF_FRAME      = TEME
TIME_SYSTEM    = UTC
MEAN_ELEMENT_THEORY = SGP/SGP4

EPOCH          = 2025-12-31T03:35:52.649952
MEAN_MOTION    = 15.40038349
ECCENTRICITY   = .0017979
INCLINATION    = 81.2320
RA_OF_ASC_NODE = 11.9066
ARG_OF_PERICENTER = 256.3490
MEAN_ANOMALY   = 103.5750

EPHEMERIS_TYPE = 0
CLASSIFICATION_TYPE = U
NORAD_CAT_ID   = 12465
ELEMENT_SET_NO = 999
REV_AT_EPOCH   = 42787
BSTAR          = .44913E-3
MEAN_MOTION_DOT = .18087E-3
MEAN_MOTION_DDOT = 0

CCSDS_OMM_VERS = 2.0
CREATION_DATE  = 
ORIGINATOR     = 

OBJECT_NAME    = SL-3 R/B
OBJECT_ID      = 1981-103B
CENTER_NAME    = EARTH
REF_FRAME      = TEME
TIME_SYSTEM    = UTC
MEAN_ELEMENT_THEORY = SGP/SGP4

EPOCH          = 2025-12-31T02:07:09.959808
MEAN_MOTION    = 15.20477545
ECCENTRICITY   = .0013426
INCLINATION    = 81.1599
RA_OF_ASC_NODE = 293.8621
ARG_OF_PERICENTER = 149.5934
MEAN_ANOMALY   = 210.6079

EPHEMERIS_TYPE = 0
CLASSIFICATION_TYPE = U
NORAD_CAT_ID   = 12904
ELEMENT_SET_NO = 999
REV_AT_EPOCH   = 96280
BSTAR          = .50471E-3
MEAN_MOTION_DOT = .11077E-3
MEAN_MOTION_DDOT = 0

CCSDS_OMM_VERS = 2.0
CREATION_DATE  = 
ORIGINATOR     = 

OBJECT_NAME    = SL-3 R/B
OBJECT_ID      = 1982-013B
CENTER_NAME    = EARTH
REF_FRAME      = TEME
TIME_SYSTEM    = UTC
MEAN_ELEMENT_THEORY = SGP/SGP4

EPOCH          = 2025-12-31T03:03:32.169888
MEAN_MOTION    = 15.21266311
ECCENTRICITY   = .0023783
INCLINATION    = 81.1746
RA_OF_ASC_NODE = 241.0849
ARG_OF_PERICENTER = 52.0781
MEAN_ANOMALY   = 308.2596

EPHEMERIS_TYPE = 0
CLASSIFICATION_TYPE = U
NORAD_CAT_ID   = 13068
ELEMENT_SET_NO = 999
REV_AT_EPOCH   = 39392
BSTAR          = .32536E-3
MEAN_MOTION_DOT = .7352E-4
MEAN_MOTION_DDOT = 0

CCSDS_OMM_VERS = 2.0
CREATION_DATE  = 
ORIGINATOR     = 

OBJECT_NAME    = SL-3 R/B
OBJECT_ID      = 1982-039B
CENTER_NAME    = EARTH
REF_FRAME      = TEME
TIME_SYSTEM    = UTC
MEAN_ELEMENT_THEORY = SGP/SGP4

EPOCH          = 2025-12-31T01:35:29.046624
MEAN_MOTION    = 15.09646610
ECCENTRICITY   = .002951
INCLINATION    = 81.1701
RA_OF_ASC_NODE = 295.0110
ARG_OF_PERICENTER = 189.9952
MEAN_ANOMALY   = 170.0690

EPHEMERIS_TYPE = 0
CLASSIFICATION_TYPE = U
NORAD_CAT_ID   = 13154
ELEMENT_SET_NO = 999
REV_AT_EPOCH   = 37128
BSTAR          = .3385E-3
MEAN_MOTION_DOT = .5524E-4
MEAN_MOTION_DDOT = 0

CCSDS_OMM_VERS = 2.0
CREATION_DATE  = 
ORIGINATOR     = 

OBJECT_NAME    = SL-3 R/B
OBJECT_ID      = 1982-079B
CENTER_NAME    = EARTH
REF_FRAME      = TEME
TIME_SYSTEM    = UTC
MEAN_ELEMENT_THEORY = SGP/SGP4

EPOCH          = 2025-12-31T03:13:19.422048
MEAN_MOTION    = 15.23834061
ECCENTRICITY   = .0026518
INCLINATION    = 81.1475
RA_OF_ASC_NODE = 273.9760
ARG_OF_PERICENTER = 39.8971
MEAN_ANOMALY   = 320.4204

EPHEMERIS_TYPE = 0
CLASSIFICATION_TYPE = U
NORAD_CAT_ID   = 13403
ELEMENT_SET_NO = 999
REV_AT_EPOCH   = 36725
BSTAR          = .40653E-3
MEAN_MOTION_DOT = .9923E-4
MEAN_MOTION_DDOT = 0

CCSDS_OMM_VERS = 2.0
CREATION_DATE  = 
ORIGINATOR     = 

OBJECT_NAME    = SL-14 R/B
OBJECT_ID      = 1982-092B
CENTER_NAME    = EARTH
REF_FRAME      = TEME
TIME_SYSTEM    = UTC
MEAN_ELEMENT_THEORY = SGP/SGP4

EPOCH          = 2025-12-30T15:40:28.552800
MEAN_MOTION    = 14.86574879
ECCENTRICITY   = .0020638
INCLINATION    = 82.5668
RA_OF_ASC_NODE = 205.9584
ARG_OF_PERICENTER = 166.1915
MEAN_ANOMALY   = 257.9015

EPHEMERIS_TYPE = 0
CLASSIFICATION_TYPE = U
NORAD_CAT_ID   = 13553
ELEMENT_SET_NO = 999
REV_AT_EPOCH   = 31867
BSTAR          = .87455E-4
MEAN_MOTION_DOT = .802E-5
MEAN_MOTION_DDOT = 0

CCSDS_OMM_VERS = 2.0
CREATION_DATE  = 
ORIGINATOR     = 

OBJECT_NAME    = SL-3 R/B
OBJECT_ID      = 1983-010B
CENTER_NAME    = EARTH
REF_FRAME      = TEME
TIME_SYSTEM    = UTC
MEAN_ELEMENT_THEORY = SGP/SGP4

EPOCH          = 2025-12-30T17:27:01.933344
MEAN_MOTION    = 15.43998129
ECCENTRICITY   = .00163176
INCLINATION    = 81.1049
RA_OF_ASC_NODE = 86.6555
ARG_OF_PERICENTER = 286.8117
MEAN_ANOMALY   = 73.1337

EPHEMERIS_TYPE = 0
CLASSIFICATION_TYPE = U
NORAD_CAT_ID   = 13819
ELEMENT_SET_NO = 999
REV_AT_EPOCH   = 34729
BSTAR          = .43867904E-3
MEAN_MOTION_DOT = .2014E-3
MEAN_MOTION_DDOT = 0

CCSDS_OMM_VERS = 2.0
CREATION_DATE  = 
ORIGINATOR     = 

OBJECT_NAME    = SL-3 R/B
OBJECT_ID      = 1983-075B
CENTER_NAME    = EARTH
REF_FRAME      = TEME
TIME_SYSTEM    = UTC
MEAN_ELEMENT_THEORY = SGP/SGP4

EPOCH          = 2025-12-31T02:08:57.602112
MEAN_MOTION    = 15.36551943
ECCENTRICITY   = .0024381
INCLINATION    = 97.6106
RA_OF_ASC_NODE = 2.1945
ARG_OF_PERICENTER = 112.8718
MEAN_ANOMALY   = 247.5103

EPHEMERIS_TYPE = 0
CLASSIFICATION_TYPE = U
NORAD_CAT_ID   = 14208
ELEMENT_SET_NO = 999
REV_AT_EPOCH   = 31961
BSTAR          = .48284E-3
MEAN_MOTION_DOT = .17329E-3
MEAN_MOTION_DDOT = 0

CCSDS_OMM_VERS = 2.0
CREATION_DATE  = 
ORIGINATOR     = 

OBJECT_NAME    = COSMOS 1536
OBJECT_ID      = 1984-013A
CENTER_NAME    = EARTH
REF_FRAME      = TEME
TIME_SYSTEM    = UTC
MEAN_ELEMENT_THEORY = SGP/SGP4

EPOCH          = 2025-12-30T22:40:10.569792
MEAN_MOTION    = 15.22762114
ECCENTRICITY   = .0014963
INCLINATION    = 82.5445
RA_OF_ASC_NODE = 176.1069
ARG_OF_PERICENTER = 160.1695
MEAN_ANOMALY   = 200.0126

EPHEMERIS_TYPE = 0
CLASSIFICATION_TYPE = U
NORAD_CAT_ID   = 14699
ELEMENT_SET_NO = 999
REV_AT_EPOCH   = 26215
BSTAR          = .4877E-3
MEAN_MOTION_DOT = .11456E-3
MEAN_MOTION_DDOT = 0

CCSDS_OMM_VERS = 2.0
CREATION_DATE  = 
ORIGINATOR     = 

OBJECT_NAME    = SL-14 R/B
OBJECT_ID      = 1984-027B
CENTER_NAME    = EARTH
REF_FRAME      = TEME
TIME_SYSTEM    = UTC
MEAN_ELEMENT_THEORY = SGP/SGP4

EPOCH          = 2025-12-30T20:56:22.577856
MEAN_MOTION    = 14.85896827
ECCENTRICITY   = .00173927
INCLINATION    = 82.5427
RA_OF_ASC_NODE = 309.5520
ARG_OF_PERICENTER = 196.6230
MEAN_ANOMALY   = 163.4419

EPHEMERIS_TYPE = 0
CLASSIFICATION_TYPE = U
NORAD_CAT_ID   = 14820
ELEMENT_SET_NO = 999
REV_AT_EPOCH   = 23741
BSTAR          = .1021903E-3
MEAN_MOTION_DOT = .917E-5
MEAN_MOTION_DDOT = 0

